{
 "generated_at": "2026-07-23T07:33:13Z",
 "sources": [
  {
   "name": "CelesTrak",
   "url": "https://celestrak.org/NORAD/elements/",
   "license": "frei verfügbar; Attribution. Ursprünglich USSPACECOM/Space-Track."
  },
  {
   "name": "GCAT (J. McDowell, planet4589.org)",
   "url": "https://planet4589.org/space/gcat/",
   "license": "CC-BY 4.0"
  }
 ],
 "satellites": [
  {
   "norad": 40267,
   "name": "HIMAWARI-8",
   "intl": "2014-060A",
   "group": "weather",
   "gcat": {
    "class": "C",
    "category": "MET",
    "owner": "JMA",
    "state": "J"
   },
   "omm": {
    "OBJECT_NAME": "HIMAWARI-8",
    "OBJECT_ID": "2014-060A",
    "EPOCH": "2026-07-22T22:15:16.157376",
    "MEAN_MOTION": 1.00270763,
    "ECCENTRICITY": 0.00013685,
    "INCLINATION": 0.0396,
    "RA_OF_ASC_NODE": 267.9566,
    "ARG_OF_PERICENTER": 248.8349,
    "MEAN_ANOMALY": 258.3387,
    "EPHEMERIS_TYPE": 0,
    "CLASSIFICATION_TYPE": "U",
    "NORAD_CAT_ID": 40267,
    "ELEMENT_SET_NO": 999,
    "REV_AT_EPOCH": 4311,
    "BSTAR": 0,
    "MEAN_MOTION_DOT": -0.00000272,
    "MEAN_MOTION_DDOT": 0
   }
  },
  {
   "norad": 41836,
   "name": "HIMAWARI-9",
   "intl": "2016-064A",
   "group": "weather",
   "gcat": {
    "class": "C",
    "category": "MET",
    "owner": "JMA",
    "state": "J"
   },
   "omm": {
    "OBJECT_NAME": "HIMAWARI-9",
    "OBJECT_ID": "2016-064A",
    "EPOCH": "2026-07-22T22:15:23.644800",
    "MEAN_MOTION": 1.00271775,
    "ECCENTRICITY": 0.00024171,
    "INCLINATION": 0.0142,
    "RA_OF_ASC_NODE": 49.8368,
    "ARG_OF_PERICENTER": 124.5286,
    "MEAN_ANOMALY": 240.9039,
    "EPHEMERIS_TYPE": 0,
    "CLASSIFICATION_TYPE": "U",
    "NORAD_CAT_ID": 41836,
    "ELEMENT_SET_NO": 999,
    "REV_AT_EPOCH": 3556,
    "BSTAR": 0,
    "MEAN_MOTION_DOT": 0,
    "MEAN_MOTION_DDOT": 0
   }
  },
  {
   "norad": 40015,
   "name": "HODOYOSHI-3",
   "intl": "2014-033F",
   "group": "resource",
   "gcat": {
    "class": null,
    "category": null,
    "owner": null,
    "state": null
   },
   "omm": {
    "OBJECT_NAME": "HODOYOSHI-3",
    "OBJECT_ID": "2014-033F",
    "EPOCH": "2026-07-22T21:17:24.265824",
    "MEAN_MOTION": 14.85449421,
    "ECCENTRICITY": 0.00315714,
    "INCLINATION": 97.6454,
    "RA_OF_ASC_NODE": 5.4994,
    "ARG_OF_PERICENTER": 235.444,
    "MEAN_ANOMALY": 124.3795,
    "EPHEMERIS_TYPE": 0,
    "CLASSIFICATION_TYPE": "U",
    "NORAD_CAT_ID": 40015,
    "ELEMENT_SET_NO": 999,
    "REV_AT_EPOCH": 65292,
    "BSTAR": 0.00012165765,
    "MEAN_MOTION_DOT": 0.00001005,
    "MEAN_MOTION_DDOT": 0
   }
  },
  {
   "norad": 40011,
   "name": "HODOYOSHI-4",
   "intl": "2014-033B",
   "group": "resource",
   "gcat": {
    "class": null,
    "category": null,
    "owner": null,
    "state": null
   },
   "omm": {
    "OBJECT_NAME": "HODOYOSHI-4",
    "OBJECT_ID": "2014-033B",
    "EPOCH": "2026-07-22T22:32:44.456352",
    "MEAN_MOTION": 14.88204307,
    "ECCENTRICITY": 0.00233778,
    "INCLINATION": 97.547,
    "RA_OF_ASC_NODE": 27.0395,
    "ARG_OF_PERICENTER": 183.0523,
    "MEAN_ANOMALY": 177.0555,
    "EPHEMERIS_TYPE": 0,
    "CLASSIFICATION_TYPE": "U",
    "NORAD_CAT_ID": 40011,
    "ELEMENT_SET_NO": 999,
    "REV_AT_EPOCH": 65412,
    "BSTAR": 0.00020660995,
    "MEAN_MOTION_DOT": 0.00001863,
    "MEAN_MOTION_DDOT": 0
   }
  },
  {
   "norad": 33320,
   "name": "HUANJING 1A (HJ-1A)",
   "intl": "2008-041A",
   "group": "resource",
   "gcat": {
    "class": null,
    "category": null,
    "owner": null,
    "state": null
   },
   "omm": {
    "OBJECT_NAME": "HUANJING 1A (HJ-1A)",
    "OBJECT_ID": "2008-041A",
    "EPOCH": "2026-07-22T23:15:51.683616",
    "MEAN_MOTION": 14.84060328,
    "ECCENTRICITY": 0.00197269,
    "INCLINATION": 97.671,
    "RA_OF_ASC_NODE": 188.4294,
    "ARG_OF_PERICENTER": 25.6561,
    "MEAN_ANOMALY": 334.5628,
    "EPHEMERIS_TYPE": 0,
    "CLASSIFICATION_TYPE": "U",
    "NORAD_CAT_ID": 33320,
    "ELEMENT_SET_NO": 999,
    "REV_AT_EPOCH": 96371,
    "BSTAR": 0.00010761219,
    "MEAN_MOTION_DOT": 0.00000848,
    "MEAN_MOTION_DDOT": 0
   }
  },
  {
   "norad": 33321,
   "name": "HUANJING 1B (HJ-1B)",
   "intl": "2008-041B",
   "group": "resource",
   "gcat": {
    "class": null,
    "category": null,
    "owner": null,
    "state": null
   },
   "omm": {
    "OBJECT_NAME": "HUANJING 1B (HJ-1B)",
    "OBJECT_ID": "2008-041B",
    "EPOCH": "2026-07-22T22:55:01.790112",
    "MEAN_MOTION": 14.83375427,
    "ECCENTRICITY": 0.00379144,
    "INCLINATION": 97.6547,
    "RA_OF_ASC_NODE": 191.4782,
    "ARG_OF_PERICENTER": 67.0159,
    "MEAN_ANOMALY": 293.5049,
    "EPHEMERIS_TYPE": 0,
    "CLASSIFICATION_TYPE": "U",
    "NORAD_CAT_ID": 33321,
    "ELEMENT_SET_NO": 999,
    "REV_AT_EPOCH": 96371,
    "BSTAR": 0.000079009283,
    "MEAN_MOTION_DOT": 0.00000604,
    "MEAN_MOTION_DDOT": 0
   }
  },
  {
   "norad": 43719,
   "name": "HYSIS",
   "intl": "2018-096A",
   "group": "resource",
   "gcat": {
    "class": "C",
    "category": "IMG",
    "owner": "ISRO",
    "state": "IN"
   },
   "omm": {
    "OBJECT_NAME": "HYSIS",
    "OBJECT_ID": "2018-096A",
    "EPOCH": "2026-07-22T22:35:36.786336",
    "MEAN_MOTION": 14.78620594,
    "ECCENTRICITY": 0.00016516,
    "INCLINATION": 97.9821,
    "RA_OF_ASC_NODE": 270.4056,
    "ARG_OF_PERICENTER": 74.3423,
    "MEAN_ANOMALY": 285.797,
    "EPHEMERIS_TYPE": 0,
    "CLASSIFICATION_TYPE": "U",
    "NORAD_CAT_ID": 43719,
    "ELEMENT_SET_NO": 999,
    "REV_AT_EPOCH": 41270,
    "BSTAR": 0.00010659013,
    "MEAN_MOTION_DOT": 0.00000729,
    "MEAN_MOTION_DDOT": 0
   }
  },
  {
   "norad": 43613,
   "name": "ICESAT-2",
   "intl": "2018-070A",
   "group": "resource",
   "gcat": {
    "class": "C",
    "category": "SCI",
    "owner": "GSFC",
    "state": "US"
   },
   "omm": {
    "OBJECT_NAME": "ICESAT-2",
    "OBJECT_ID": "2018-070A",
    "EPOCH": "2026-07-22T20:11:47.679648",
    "MEAN_MOTION": 15.28272646,
    "ECCENTRICITY": 0.00046553,
    "INCLINATION": 92.0084,
    "RA_OF_ASC_NODE": 300.6145,
    "ARG_OF_PERICENTER": 41.2443,
    "MEAN_ANOMALY": 318.9157,
    "EPHEMERIS_TYPE": 0,
    "CLASSIFICATION_TYPE": "U",
    "NORAD_CAT_ID": 43613,
    "ELEMENT_SET_NO": 999,
    "REV_AT_EPOCH": 43790,
    "BSTAR": 0.00035954066,
    "MEAN_MOTION_DOT": 0.00009903,
    "MEAN_MOTION_DDOT": 0
   }
  },
  {
   "norad": 43800,
   "name": "ICEYE-X2",
   "intl": "2018-099AU",
   "group": "sar",
   "gcat": {
    "class": "B",
    "category": "IMG-R",
    "owner": "ICEYE",
    "state": "FI"
   },
   "omm": {
    "OBJECT_NAME": "ICEYE-X2",
    "OBJECT_ID": "2018-099AU",
    "EPOCH": "2026-07-22T22:29:09.781728",
    "MEAN_MOTION": 15.18104754,
    "ECCENTRICITY": 0.00107133,
    "INCLINATION": 97.4343,
    "RA_OF_ASC_NODE": 257.1523,
    "ARG_OF_PERICENTER": 167.8055,
    "MEAN_ANOMALY": 192.3441,
    "EPHEMERIS_TYPE": 0,
    "CLASSIFICATION_TYPE": "U",
    "NORAD_CAT_ID": 43800,
    "ELEMENT_SET_NO": 999,
    "REV_AT_EPOCH": 41824,
    "BSTAR": 0.00028274205,
    "MEAN_MOTION_DOT": 0.00005707,
    "MEAN_MOTION_DDOT": 0
   }
  },
  {
   "norad": 55049,
   "name": "ICEYE-X21",
   "intl": "2023-001AS",
   "group": "sar",
   "gcat": {
    "class": "B",
    "category": "IMG-R",
    "owner": "ICEYE",
    "state": "FI"
   },
   "omm": {
    "OBJECT_NAME": "ICEYE-X21",
    "OBJECT_ID": "2023-001AS",
    "EPOCH": "2026-06-24T05:11:18.420288",
    "MEAN_MOTION": 16.24069885,
    "ECCENTRICITY": 0.00123774,
    "INCLINATION": 97.3001,
    "RA_OF_ASC_NODE": 262.6152,
    "ARG_OF_PERICENTER": 285.9702,
    "MEAN_ANOMALY": 74.0225,
    "EPHEMERIS_TYPE": 0,
    "CLASSIFICATION_TYPE": "U",
    "NORAD_CAT_ID": 55049,
    "ELEMENT_SET_NO": 999,
    "REV_AT_EPOCH": 19475,
    "BSTAR": 0.000602142,
    "MEAN_MOTION_DOT": 0.01585954,
    "MEAN_MOTION_DDOT": 0.000002396838
   }
  }
 ]
}
